$$SOE
2461295.500000000, A.D. 2026-Sep-12 00:00:00.0000, 2.708617775620511E+08, -4.329448623839062E+07, 2.410851389628294E+07,
2461302.500000000, A.D. 2026-Sep-19 00:00:00.0000, 2.716774634258175E+08, -3.064106111763854E+07, 1.888647354057259E+07,
2461309.500000000, A.D. 2026-Sep-26 00:00:00.0000, 2.718525121683341E+08, -1.791547309585050E+07, 1.361992440075676E+07,
2461316.500000000, A.D. 2026-Oct-03 00:00:00.0000, 2.713775289385272E+08, -5.147138608405827E+06, 8.320835707666779E+06,
2461323.500000000, A.D. 2026-Oct-10 00:00:00.0000, 2.702448096405547E+08, 7.633579046796392E+06, 3.001607378874514E+06,
2461330.500000000, A.D. 2026-Oct-17 00:00:00.0000, 2.684484606722018E+08, 2.039545893355212E+07, -2.324964264501154E+06,
2461337.500000000, A.D. 2026-Oct-24 00:00:00.0000, 2.659845137637986E+08, 3.310652502167238E+07, -7.645726446276339E+06,
2461344.500000000, A.D. 2026-Oct-31 00:00:00.0000, 2.628510341520309E+08, 4.573416200304338E+07, -1.294721558301817E+07,
2461351.500000000, A.D. 2026-Nov-07 00:00:00.0000, 2.590482205051268E+08, 5.824524419763265E+07, -1.821570858762665E+07,
2461358.500000000, A.D. 2026-Nov-14 00:00:00.0000, 2.545784948032740E+08, 7.060627788554981E+07, -2.343727961049465E+07,
2461365.500000000, A.D. 2026-Nov-21 00:00:00.0000, 2.494465783389643E+08, 8.278355692665847E+07, -2.859786171579302E+07,
2461372.500000000, A.D. 2026-Nov-28 00:00:00.0000, 2.436595508862227E+08, 9.474332754843445E+07, -3.368331324418586E+07,
2461379.500000000, A.D. 2026-Dec-05 00:00:00.0000, 2.372268947915126E+08, 1.064519602220125E+08, -3.867948871656972E+07,
2461386.500000000, A.D. 2026-Dec-12 00:00:00.0000, 2.301605224349154E+08, 1.178761300363522E+08, -4.357231337462850E+07,
2461393.500000000, A.D. 2026-Dec-19 00:00:00.0000, 2.224747837029217E+08, 1.289830036110688E+08, -4.834786039798993E+07,
2461400.500000000, A.D. 2026-Dec-26 00:00:00.0000, 2.141864521548952E+08, 1.397404294675919E+08, -5.299242996264955E+07,
2461407.500000000, A.D. 2027-Jan-02 00:00:00.0000, 2.053146893233393E+08, 1.501171292503014E+08, -5.749262919731906E+07,
2461414.500000000, A.D. 2027-Jan-09 00:00:00.0000, 1.958809868123757E+08, 1.600828872483030E+08, -6.183545199152461E+07,
2461421.500000000, A.D. 2027-Jan-16 00:00:00.0000, 1.859090861948405E+08, 1.696087355663576E+08, -6.600835755589553E+07,
2461428.500000000, A.D. 2027-Jan-23 00:00:00.0000, 1.754248771586244E+08, 1.786671322225651E+08, -6.999934662067103E+07,
2461435.500000000, A.D. 2027-Jan-30 00:00:00.0000, 1.644562749427248E+08, 1.872321294934732E+08, -7.379703418337375E+07,
2461442.500000000, A.D. 2027-Feb-06 00:00:00.0000, 1.530330787849568E+08, 1.952795303389024E+08, -7.739071775116959E+07,
2461449.500000000, A.D. 2027-Feb-13 00:00:00.0000, 1.411868126361190E+08, 2.027870317973666E+08, -8.077043993826203E+07,
2461456.500000000, A.D. 2027-Feb-20 00:00:00.0000, 1.289505478455858E+08, 2.097343524859830E+08, -8.392704435044755E+07,
2461463.500000000, A.D. 2027-Feb-27 00:00:00.0000, 1.163587116148937E+08, 2.161033392734669E+08, -8.685222437349007E+07,
2461470.500000000, A.D. 2027-Mar-06 00:00:00.0000, 1.034468869265799E+08, 2.218780536821564E+08, -8.953856436986679E+07,
2461477.500000000, A.D. 2027-Mar-13 00:00:00.0000, 9.025160520395115E+07, 2.270448390778202E+08, -9.197957249585065E+07,
2461484.500000000, A.D. 2027-Mar-20 00:00:00.0000, 7.681013352765836E+07, 2.315923672522285E+08, -9.416970480028126E+07,
2461491.500000000, A.D. 2027-Mar-27 00:00:00.0000, 6.316025959702201E+07, 2.355116637181859E+08, -9.610438054495071E+07,
2461498.500000000, A.D. 2027-Apr-03 00:00:00.0000, 4.934007757279679E+07, 2.387961119515665E+08, -9.777998881925456E+07,
2461505.500000000, A.D. 2027-Apr-10 00:00:00.0000, 3.538777766820108E+07, 2.414414372758979E+08, -9.919388666753967E+07,
2461512.500000000, A.D. 2027-Apr-17 00:00:00.0000, 2.134144212100949E+07, 2.434456714027506E+08, -1.003443890983887E+08,
2461519.500000000, A.D. 2027-Apr-24 00:00:00.0000, 7.238849985419960E+06, 2.448090989032047E+08, -1.012307514880629E+08,
2461526.500000000, A.D. 2027-May-01 00:00:00.0000, -6.882706893472725E+06, 2.455341872333572E+08, -1.018531450165763E+08,
2461533.500000000, A.D. 2027-May-08 00:00:00.0000, -2.098659468034802E+07, 2.456255028604930E+08, -1.022126258099667E+08,
2461540.500000000, A.D. 2027-May-15 00:00:00.0000, -3.503699522673775E+07, 2.450896163860476E+08, -1.023110983513617E+08,
2461547.500000000, A.D. 2027-May-22 00:00:00.0000, -4.899905113485084E+07, 2.439349960855708E+08, -1.021512740351964E+08,
2461554.500000000, A.D. 2027-May-29 00:00:00.0000, -6.283899416738874E+07, 2.421718904323511E+08, -1.017366261097588E+08,
2461561.500000000, A.D. 2027-Jun-05 00:00:00.0000, -7.652425576461877E+07, 2.398122047724543E+08, -1.010713416761303E+08,
2461568.500000000, A.D. 2027-Jun-12 00:00:00.0000, -9.002356160756429E+07, 2.368693745442218E+08, -1.001602713396410E+08,
2461575.500000000, A.D. 2027-Jun-19 00:00:00.0000, -1.033070107714025E+08, 2.333582359528217E+08, -9.900887732632160E+07,
2461582.500000000, A.D. 2027-Jun-26 00:00:00.0000, -1.163461396490988E+08, 2.292948955511147E+08, -9.762318083007139E+07,
2461589.500000000, A.D. 2027-Jul-03 00:00:00.0000, -1.291139711762936E+08, 2.246966002919295E+08, -9.600970926258743E+07,
2461596.500000000, A.D. 2027-Jul-10 00:00:00.0000, -1.415850501490270E+08, 2.195816094451271E+08, -9.417544400250679E+07,
2461603.500000000, A.D. 2027-Jul-17 00:00:00.0000, -1.537354655541439E+08, 2.139690695450366E+08, -9.212776917272449E+07,
2461610.500000000, A.D. 2027-Jul-24 00:00:00.0000, -1.655428608032639E+08, 2.078788933280867E+08, -8.987442191429183E+07,
2461617.500000000, A.D. 2027-Jul-31 00:00:00.0000, -1.769864325627327E+08, 2.013316437398301E+08, -8.742344454948176E+07,
2461624.500000000, A.D. 2027-Aug-07 00:00:00.0000, -1.880469195110862E+08, 1.943484248335841E+08, -8.478313882102004E+07,
2461631.500000000, A.D. 2027-Aug-14 00:00:00.0000, -1.987065844590131E+08, 1.869507798154928E+08, -8.196202224691351E+07,
2461638.500000000, A.D. 2027-Aug-21 00:00:00.0000, -2.089491903214868E+08, 1.791605932263623E+08, -7.896878708352956E+07,
2461645.500000000, A.D. 2027-Aug-28 00:00:00.0000, -2.187599675822257E+08, 1.709999986605990E+08, -7.581226220912214E+07,
2461652.500000000, A.D. 2027-Sep-04 00:00:00.0000, -2.281255754794908E+08, 1.624912946014516E+08, -7.250137768275093E+07,
2461659.500000000, A.D. 2027-Sep-11 00:00:00.0000, -2.370340592970448E+08, 1.536568677146186E+08, -6.904513194876221E+07,
2461666.500000000, A.D. 2027-Sep-18 00:00:00.0000, -2.454748045280558E+08, 1.445191228746634E+08, -6.545256174862695E+07,
2461673.500000000, A.D. 2027-Sep-25 00:00:00.0000, -2.534384885022590E+08, 1.351004196921448E+08, -6.173271471971062E+07,
2461680.500000000, A.D. 2027-Oct-02 00:00:00.0000, -2.609170301430580E+08, 1.254230153489201E+08, -5.789462460582767E+07,
2461687.500000000, A.D. 2027-Oct-09 00:00:00.0000, -2.679035384979743E+08, 1.155090134658677E+08, -5.394728897988179E+07,
2461694.500000000, A.D. 2027-Oct-16 00:00:00.0000, -2.743922605708755E+08, 1.053803186396788E+08, -4.989964937146933E+07,
2461701.500000000, A.D. 2027-Oct-23 00:00:00.0000, -2.803785287153320E+08, 9.505859630927439E+07, -4.576057369574551E+07,
2461708.500000000, A.D. 2027-Oct-30 00:00:00.0000, -2.858587076638744E+08, 8.456523821229662E+07, -4.153884083271353E+07,
2461715.500000000, A.D. 2027-Nov-06 00:00:00.0000, -2.908301427416898E+08, 7.392133420048764E+07, -3.724312701873924E+07,
2461722.500000000, A.D. 2027-Nov-13 00:00:00.0000, -2.952911115808973E+08, 6.314764797731315E+07, -3.288199389883348E+07,
2461729.500000000, A.D. 2027-Nov-20 00:00:00.0000, -2.992407767104014E+08, 5.226459422196370E+07, -2.846387854566677E+07,
2461736.500000000, A.D. 2027-Nov-27 00:00:00.0000, -3.026791376157981E+08, 4.129221972154678E+07, -2.399708520914527E+07,
2461743.500000000, A.D. 2027-Dec-04 00:00:00.0000, -3.056069844585881E+08, 3.025018908148380E+07, -1.948977839806067E+07,
2461750.500000000, A.D. 2027-Dec-11 00:00:00.0000, -3.080258541461260E+08, 1.915777372109869E+07, -1.494997719416510E+07,
2461757.500000000, A.D. 2027-Dec-18 00:00:00.0000, -3.099379885834293E+08, 8.033843510129580E+06, -1.038555072844547E+07,
2461764.500000000, A.D. 2027-Dec-25 00:00:00.0000, -3.113462950235360E+08, -3.103139244932928E+06, -5.804214714196826E+06,
2461771.500000000, A.D. 2028-Jan-01 00:00:00.0000, -3.122543085155177E+08, -1.423512372449543E+07, -1.213528926326899E+06,
$$EOE